{
    "links": {
        "self": "http://www.neowsapp.com/rest/v1/neo/3550132?api_key=iIulBulltgU6a56xZRHN4H3l9WmuAYTsLGpBGhQ2"
    },
    "id": "3550132",
    "neo_reference_id": "3550132",
    "name": "(2010 VH)",
    "designation": "2010 VH",
    "nasa_jpl_url": "http://ssd.jpl.nasa.gov/sbdb.cgi?sstr=3550132",
    "absolute_magnitude_h": 27.1,
    "estimated_diameter": {
        "kilometers": {
            "estimated_diameter_min": 0.0101054342,
            "estimated_diameter_max": 0.0225964377
        },
        "meters": {
            "estimated_diameter_min": 10.1054341542,
            "estimated_diameter_max": 22.5964377109
        },
        "miles": {
            "estimated_diameter_min": 0.0062792237,
            "estimated_diameter_max": 0.0140407711
        },
        "feet": {
            "estimated_diameter_min": 33.1543125905,
            "estimated_diameter_max": 74.1352966996
        }
    },
    "is_potentially_hazardous_asteroid": false,
    "close_approach_data": [
        {
            "close_approach_date": "2010-11-05",
            "close_approach_date_full": "2010-Nov-05 05:36",
            "epoch_date_close_approach": 1288935360000,
            "relative_velocity": {
                "kilometers_per_second": "7.7866299108",
                "kilometers_per_hour": "28031.8676788645",
                "miles_per_hour": "17417.9124474589"
            },
            "miss_distance": {
                "astronomical": "0.0646889863",
                "lunar": "25.1640156707",
                "kilometers": "9677334.562939181",
                "miles": "6013216.8608394578"
            },
            "orbiting_body": "Earth"
        }
    ],
    "orbital_data": {
        "orbit_id": "7",
        "orbit_determination_date": "2019-07-16 06:14:07",
        "first_observation_date": "2010-11-01",
        "last_observation_date": "2010-11-02",
        "data_arc_in_days": 1,
        "observations_used": 19,
        "orbit_uncertainty": "8",
        "minimum_orbit_intersection": ".0645783",
        "jupiter_tisserand_invariant": "3.945",
        "epoch_osculation": "2455502.5",
        "eccentricity": ".413432881760032",
        "semi_major_axis": "1.796799420801493",
        "inclination": "11.39523311489143",
        "ascending_node_longitude": "41.21710466663771",
        "orbital_period": "879.726805535927",
        "perihelion_distance": "1.053943458314775",
        "perihelion_argument": "8.039430097781183",
        "aphelion_distance": "2.53965538328821",
        "perihelion_time": "2455511.677412983684",
        "mean_anomaly": "356.2444378716941",
        "mean_motion": ".4092179500892769",
        "equinox": "J2000",
        "orbit_class": {
            "orbit_class_type": "AMO",
            "orbit_class_description": "Near-Earth asteroid orbits similar to that of 1221 Amor",
            "orbit_class_range": "1.017 AU < q (perihelion) < 1.3 AU"
        }
    },
    "is_sentry_object": false
}